ENVISAT                 
1 27386U 02009A   23035.56050795  .00000267  00000+0  10137-3 0  9996
2 27386  98.2139  11.1425 0001223  89.5792  21.4932 14.38234918 96821
IDEFIX & ARIANE 42P R/B 
1 27422U 02021B   23035.41424138  .00000324  00000+0  14357-3 0  9993
2 27422  98.4778 339.7685 0010975 274.4690  85.5239 14.29549753 82592
AQUA                    
1 27424U 02022A   23035.62488892  .00001043  00000+0  23893-3 0  9990
2 27424  98.2738 340.6472 0000905 108.1899  15.7795 14.57648419104002
CZ-4B R/B               
1 27432U 02024C   23035.60894606  .00000051  00000+0  50546-4 0  9997
2 27432  99.0407  68.7468 0049989 342.2445 131.2332 14.14177875 69635
MIDORI II (ADEOS-II)    
1 27597U 02056A   23035.45372281  .00000378  00000+0  17072-3 0  9995
2 27597  98.6347 341.1550 0002081  69.9269 290.2136 14.27750259 49075
H-2A R/B                
1 27601U 02056E   23035.59001118  .00000404  00000+0  16079-3 0  9990
2 27601  98.1850  34.1122 0070698 289.1939 178.9687 14.32221653 52409
CZ-4B R/B               
1 28059U 03049C   23035.39768012  .00000484  00000+0  12708-3 0  9995
2 28059  98.5455 341.1365 0051033  79.1005 281.5926 14.52968196 22490
CZ-2C R/B               
1 28222U 04012C   23035.51372504  .00008494  00000+0  44950-3 0  9992
2 28222  97.7942  26.2909 0041732 339.3659  20.5885 15.14944867 31347
SL-16 R/B               
1 28353U 04021B   23035.55530446 -.00000184  00000+0 -71251-4 0  9997
2 28353  71.0006  81.4677 0007355 299.9936  60.0455 14.14299775963161
CZ-4B R/B               
1 28415U 04035C   23035.59543744  .00004336  00000+0  26789-3 0  9996
2 28415  97.4887  75.8071 0047392 305.1287  54.5505 15.09460244  8607
CZ-2C R/B               
1 28480U 04046B   23035.53346761  .00000219  00000+0  98418-4 0  9999
2 28480  98.0932  10.3056 0140224 254.7580 103.8062 14.25937676947510
ARIANE 5 R/B            
1 28499U 04049H   23035.40975589  .00000867  00000+0  11186-3 0  9999
2 28499  98.1170 159.6311 0091729  45.7345 355.1731 14.80828549978404
CZ-2D R/B               
1 28738U 05024B   23035.55821482  .00006486  00000+0  34201-3 0  9993
2 28738  97.3536  40.9495 0013060  92.6136 267.6592 15.15825795966883
SUZAKU (ASTRO-EII)      
1 28773U 05025A   23035.58986407  .00010672  00000+0  41735-3 0  9997
2 28773  31.3768 220.9968 0003395 216.3674 143.6745 15.24583181970433
ALOS (DAICHI)           
1 28931U 06002A   23035.44662600  .00001371  00000+0  27246-3 0  9997
2 28931  97.9679 357.0909 0000829  23.4757 336.6396 14.63652412908357
H-2A R/B                
1 28932U 06002B   23035.59134247  .00003546  00000+0  30888-3 0  9997
2 28932  98.2615  95.5255 0085462  50.2326 310.6380 14.94821226924703
AKARI (ASTRO-F)         
1 28939U 06005A   23035.29796586  .00115749  00000+0  99385-3 0  9990
2 28939  98.1810 146.5282 0040841 162.3483 197.9206 15.67885652929087
CZ-4B R/B               
1 29093U 06015B   23035.56850204  .00127269  00000+0  57433-3 0  9999
2 29093  97.5609 278.5396 0022918  42.3031 318.0000 15.83267030935910
RESURS-DK 1             
1 29228U 06021A   23035.07068935  .00001732  00000+0  13224-3 0  9990
2 29228  69.9335 258.4616 0001873  27.1161 333.0098 15.03981526917192
GENESIS 1               
1 29252U 06029A   23035.43772254  .00008480  00000+0  35340-3 0  9991
2 29252  64.5218  27.9725 0041479 228.3470 131.4102 15.23541264914279
CZ-4B R/B               
1 29507U 06046C   23035.54333837  .00002651  00000+0  19833-3 0  9998
2 29507  97.7060  69.5074 0045218 166.8281 193.4137 15.02831994889710
CZ-2C R/B               
1 31114U 07010B   23035.46555329  .00000118  00000+0  73750-4 0  9995
2 31114  98.2585 197.7987 0059240 342.4161  17.4965 14.19494535819474
COSMO-SKYMED 1          
1 31598U 07023A   23035.50319892  .00000656  00000+0  88933-4 0  9999
2 31598  97.8882 220.8741 0001315  89.4261 270.7066 14.82157865847334
GENESIS 2               
1 31789U 07028A   23035.48831401  .00008933  00000+0  37604-3 0  9992
2 31789  64.4954  71.6090 0059730 280.6800  78.7603 15.22316870861183
COSMOS 2428             
1 31792U 07029A   23035.47273982 -.00000247  00000+0 -10773-3 0  9990
2 31792  70.9435  53.2573 0007745  52.8363 307.3464 14.12576880804615
SL-16 R/B               
1 31793U 07029B   23035.43370736 -.00000230  00000+0 -95089-4 0  9998
2 31793  70.9766  25.5113 0003101 271.6517 250.2712 14.14508299805668
KORONAS-FOTON           
1 33504U 09003A   23035.32383399  .00005715  00000+0  27257-3 0  9993
2 33504  82.4432 344.3913 0017663 179.3149 180.8113 15.18752150773132
CZ-2C R/B               
1 37731U 11030B   23035.56815383  .00001502  00000+0  22167-3 0  9996
2 37731  97.6984  15.5646 0060002  57.3839  60.4818 14.75486919623277
H-2A R/B                
1 38341U 12025E   23035.60457174  .00001768  00000+0  20737-3 0  9999
2 38341  98.4760 270.9864 0054702  20.8475 339.4952 14.85360624580103
CUSAT 2 & FALCON 9 R/B  
1 39271U 13055G   23035.18932739  .00029678  00000+0  57925-3 0  9993
2 39271  80.9542 297.9364 0483698 118.7254 246.3449 14.74424604490773
SHIJIAN-16 (SJ-16)      
1 39358U 13057A   23035.45285751  .00001876  00000+0  21388-3 0  9990
2 39358  74.9745 153.1346 0019319 318.6858  41.2864 14.86603718503468
CZ-2C R/B               
1 39364U 13059B   23035.59143532  .00015746  00000+0  43395-3 0  9997
2 39364  97.1277  86.2639 0037263 216.5016 143.3689 15.36489898515787
SL-4 R/B                
1 39679U 14021B   23035.21845912  .00007483  00000+0  34366-3 0  9993
2 39679  51.6139 315.2670 0159678  45.5913 315.8003 15.10784349484129
ALOS-2                  
1 39766U 14029A   23035.38557267 -.00000123  00000+0 -95687-5 0  9990
2 39766  97.9190 134.1928 0001553  93.5945 266.5470 14.79470862469923
SL-27 R/B               
1 40354U 14084B   23035.54750044  .00012462  00000+0  23512-3 0  9995
2 40354  74.7349 191.1156 0031184 253.5091 106.2698 15.47925790456453
YAOGAN-29               
1 41038U 15069A   23035.56838735  .00000573  00000+0  80796-4 0  9993
2 41038  98.0629  41.9504 0002397  79.2982 280.8499 14.81089844388649
ASTRO-H (HITOMI)        
1 41337U 16012A   23035.34974850  .00002567  00000+0  19369-3 0  9991
2 41337  31.0064  27.0033 0012231 222.4084 137.5607 15.00204896381961
HXMT (HUIYAN)           
1 42758U 17034A   23035.55489520  .00004762  00000+0  28306-3 0  9992
2 42758  43.0158 150.4509 0011521 304.1720 170.9229 15.12230774311298
CZ-2C R/B               
1 43521U 18054D   23035.29895984  .00010235  00000+0  49015-3 0  9992
2 43521  35.1545   0.6553 0075351 336.9537  22.7806 15.15675652254847
AEOLUS                  
1 43600U 18066A   23035.56896751  .00125968  00000+0  49978-3 0  9994
2 43600  96.7286  42.8831 0006288 102.8860 257.3115 15.86357229257936
SAOCOM 1A               
1 43641U 18076A   23035.57905894  .00000561  00000+0  77010-4 0  9990
2 43641  97.8856 223.9569 0001414  85.0470 275.0908 14.82159361234115
H-2A R/B                
1 43682U 18084L   23035.55630074  .00005626  00000+0  37521-3 0  9996
2 43682  98.8993  38.9673 0052138 219.6693 140.0712 15.06459013234235
SAOCOM 1B               
1 46265U 20059A   23035.47518013  .00000361  00000+0  51904-4 0  9993
2 46265  97.8865 222.9181 0001345  77.2640 282.8611 14.82156008131493
CSS (TIANHE)            
1 48274U 21035A   23035.31253472  .00013267  00000+0  15676-3 0  9992
2 48274  41.4745 246.0741 0002389 143.5382 195.1191 15.61068933101049
2022-019U               
1 51842U 22019U   23035.54106970  .00014906  00000+0  51328-3 0  9990
2 51842  97.5393 120.2197 0063263  93.0797  34.0574 15.28194290 52163
SZ-13 MODULE            
1 52260U 21092C   23035.51747300  .00182271  20211-4  42069-3 0  9994
2 52260  41.4697 207.6437 0013747 348.0315  12.0208 15.96294718 46042
CZ-2C R/B               
1 52794U 22058K   23035.59229324  .00005945  00000+0  31299-3 0  9992
2 52794  50.1730 147.6806 0100295 298.2447  60.8410 15.12704120 37406
CZ-2C R/B               
1 53131U 22082D   23035.58903796  .00020418  00000+0  47764-3 0  9992
2 53131  97.3544  49.0083 0043203   2.7233 357.4241 15.41172199 31303
CREW DRAGON 4 DEB       
1 54047U 22042B   23035.46200661  .00102788  00000+0  86615-3 0  9992
2 54047  51.3268 253.5256 0002561 132.8111 227.3174 15.68999733 17594
